      2.10          N: GNSS NAV DATA                        RINEX VERSION / TYPE
fic2rin                                 09/18/2023 00:18:07 PGM / RUN BY / DATE
                                                            END OF HEADER
11 23  9 17 11 29 36.0 -.372954178602D-03 -.183035808732D-10  .000000000000D+00
     .500000000000D+02 -.227500000000D+02  .429089301863D-08 -.218996653061D+01
    -.111386179924D-05  .115013809409D-02  .117365270853D-04  .515359947205D+04
     .413760000000D+05  .521540641785D-07  .298308391730D+00 -.614672899246D-07
     .966077208125D+00  .156031250000D+03 -.275062554255D+01 -.783854079240D-08
     .989326923723D-10  .100000000000D+01  .228000000000D+04  .000000000000D+00
     .240000000000D+01  .000000000000D+00 -.838190317154D-08  .818000000000D+03
     .342000000000D+05  .400000000000D+01
2  23  9 17 12  0  0.0 -.552914105356D-03  .454747350886D-11  .000000000000D+00
     .123000000000D+03 -.226250000000D+02  .423910514717D-08 -.783971452541D+00
    -.132992863655D-05  .159738507355D-01  .127907842398D-04  .515375451660D+04
     .432000000000D+05 -.227242708206D-06  .166885517852D+00 -.111758708954D-07
     .967904727814D+00  .143062500000D+03 -.134515869640D+01 -.810105172704D-08
     .118933525487D-09  .100000000000D+01  .228000000000D+04  .000000000000D+00
     .240000000000D+01  .000000000000D+00 -.176951289177D-07  .123000000000D+03
     .360000000000D+05  .400000000000D+01
1  23  9 17 12  0  0.0  .165296252817D-03 -.795807864051D-12  .000000000000D+00
     .620000000000D+02 -.231250000000D+02  .359729269882D-08  .281302378383D+01
    -.129453837872D-05  .128749806900D-01  .129956752062D-04  .515364053535D+04
     .432000000000D+05 -.130385160446D-07  .267905728309D+00 -.167638063431D-06
     .990620603759D+00  .142218750000D+03  .992388607552D+00 -.728530346213D-08
     .764317551180D-10  .100000000000D+01  .228000000000D+04  .000000000000D+00
     .340000000000D+01  .630000000000D+02  .512227416039D-08  .620000000000D+02
     .360000000000D+05  .400000000000D+01
5  23  9 17 12  0  0.0 -.143055804074D-03 -.147792889038D-11  .000000000000D+00
     .600000000000D+01  .547187500000D+02  .467340895196D-08 -.964074670768D+00
     .292062759399D-05  .602994067594D-02  .657513737679D-05  .515372615242D+04
     .432000000000D+05 -.614672899246D-07  .124928010025D+01  .931322574615D-07
     .967305156691D+00  .256062500000D+03  .122709679817D+01 -.820498462769D-08
     .349300264044D-09  .100000000000D+01  .228000000000D+04  .000000000000D+00
     .240000000000D+01  .000000000000D+00 -.111758708954D-07  .600000000000D+01
     .360000000000D+05  .400000000000D+01
3  23  9 17 12  0  0.0 -.130433123559D-03  .209183781408D-10  .000000000000D+00
     .850000000000D+02  .531250000000D+02  .444089926699D-08  .160905437900D+01
     .261329114437D-05  .511427607853D-02  .645220279694D-05  .515359329414D+04
     .432000000000D+05 -.124797224998D-06  .129734006932D+01 -.391155481339D-07
     .980268566795D+00  .265125000000D+03  .111051321230D+01 -.805533553706D-08
     .406802659249D-09  .100000000000D+01  .228000000000D+04  .000000000000D+00
     .240000000000D+01  .000000000000D+00  .186264514923D-08  .850000000000D+02
     .360000000000D+05  .400000000000D+01
4  23  9 17 12  0  0.0  .158560927957D-03  .111413100967D-10  .000000000000D+00
     .158000000000D+03 -.564375000000D+02  .469019536546D-08 -.164746543781D+01
    -.293366611004D-05  .255021476187D-02  .627897679806D-05  .515362007713D+04
     .432000000000D+05 -.223517417908D-07  .237818927187D+01 -.558793544769D-08
     .963451511554D+00  .259531250000D+03 -.304513308586D+01 -.817998358629D-08
    -.506449667090D-09  .100000000000D+01  .228000000000D+04  .000000000000D+00
     .240000000000D+01  .000000000000D+00 -.419095158577D-08  .414000000000D+03
     .360000000000D+05  .400000000000D+01
30 23  9 17 12  0  0.0 -.486990902573D-03  .341060513165D-11  .000000000000D+00
     .700000000000D+01  .909375000000D+01  .468912389226D-08  .202785184170D+01
     .419095158577D-06  .658203451894D-02  .126939266920D-04  .515377332687D+04
     .432000000000D+05 -.117346644402D-06 -.288660770595D+01 -.745058059692D-07
     .935942615664D+00  .123343750000D+03 -.254648262162D+01 -.807355058150D-08
    -.196436753808D-09  .100000000000D+01  .228000000000D+04  .000000000000D+00
     .240000000000D+01  .000000000000D+00  .372529029846D-08  .700000000000D+01
     .360000000000D+05  .400000000000D+01
17 23  9 17 12  0  0.0  .723768956959D-03  .227373675443D-12  .000000000000D+00
     .150000000000D+02 -.691562500000D+02  .460804908660D-08 -.131142704878D+01
    -.325962901115D-05  .137348694261D-01  .558607280254D-05  .515357774162D+04
     .432000000000D+05 -.223517417908D-06 -.736162334425D+00  .247731804848D-06
     .972616697709D+00  .283312500000D+03 -.139964772229D+01 -.833784730481D-08
    -.242152943785D-09  .100000000000D+01  .228000000000D+04  .000000000000D+00
     .240000000000D+01  .000000000000D+00 -.111758708954D-07  .150000000000D+02
     .360000000000D+05  .400000000000D+01
12 23  9 17 12  0  0.0 -.425754114985D-03 -.432009983342D-11  .000000000000D+00
     .750000000000D+02  .715937500000D+02  .457769067919D-08  .147440533920D+01
     .360235571861D-05  .857648486272D-02  .486709177494D-05  .515378627777D+04
     .432000000000D+05 -.135973095894D-06 -.177592210338D+01 -.171363353729D-06
     .964105877737D+00  .285625000000D+03  .139040908449D+01 -.834070456668D-08
     .406802659249D-09  .100000000000D+01  .228000000000D+04  .000000000000D+00
     .240000000000D+01  .000000000000D+00 -.125728547573D-07  .750000000000D+02
     .360000000000D+05  .400000000000D+01
10 23  9 17 12  0  0.0 -.537377782166D-04 -.147792889038D-11  .000000000000D+00
     .101000000000D+03  .559375000000D+02  .453983195937D-08  .720053289110D+00
     .306963920593D-05  .880634784698D-02  .589340925217D-05  .515368420601D+04
     .432000000000D+05  .558793544769D-08  .129472621507D+01  .894069671631D-07
     .979982289819D+00  .275656250000D+03 -.244373842658D+01 -.826927301984D-08
     .250010413937D-09  .100000000000D+01  .228000000000D+04  .000000000000D+00
     .240000000000D+01  .000000000000D+00  .232830643654D-08  .101000000000D+03
     .360000000000D+05  .400000000000D+01
8  23  9 17 12  0  0.0 -.142700504512D-03 -.193267624127D-11  .000000000000D+00
     .700000000000D+02 -.688437500000D+02  .486627412842D-08 -.132061448446D+01
    -.376626849174D-05  .863543036394D-02  .442378222942D-05  .515374785805D+04
     .432000000000D+05  .558793544769D-07 -.826947317538D+00 -.130385160446D-06
     .956896757882D+00  .286812500000D+03  .270949326447D+00 -.841213611352D-08
    -.175721605224D-09  .100000000000D+01  .228000000000D+04  .000000000000D+00
     .240000000000D+01  .000000000000D+00  .512227416039D-08  .700000000000D+02
     .360000000000D+05  .400000000000D+01
25 23  9 17 12  0  0.0  .468210782856D-03  .204636307899D-11  .000000000000D+00
     .100000000000D+02  .762187500000D+02  .482591530446D-08  .124970512184D+01
     .386498868465D-05  .111683916766D-01  .535137951374D-05  .515368169785D+04
     .432000000000D+05 -.206753611565D-06 -.185960177531D+01  .372529029846D-07
     .951926201124D+00  .271281250000D+03  .105200875131D+01 -.855285626079D-08
     .324299222650D-09  .100000000000D+01  .228000000000D+04  .000000000000D+00
     .240000000000D+01  .000000000000D+00  .558793544769D-08  .100000000000D+02
     .360000000000D+05  .400000000000D+01
29 23  9 17 12  0  0.0 -.609371811152D-03 -.341060513165D-12  .000000000000D+00
     .770000000000D+02 -.715312500000D+02  .440196907397D-08 -.139715108875D+01
    -.395067036152D-05  .259466527496D-02  .586546957493D-05  .515371189499D+04
     .432000000000D+05 -.149011611938D-07 -.721801470363D+00 -.596046447754D-07
     .974936443982D+00  .279000000000D+03  .255941537774D+01 -.815712549130D-08
    -.233581158164D-09  .100000000000D+01  .228000000000D+04  .000000000000D+00
     .340000000000D+01  .000000000000D+00 -.977888703346D-08  .770000000000D+02
     .360000000000D+05  .400000000000D+01
31 23  9 17 12  0  0.0 -.223490875214D-03 -.568434188608D-12  .000000000000D+00
     .760000000000D+02  .250312500000D+02  .425732019162D-08  .126848513958D+01
     .156462192535D-05  .104632634902D-01  .123698264360D-04  .515363215065D+04
     .432000000000D+05 -.141561031342D-06 -.287055789126D+01  .391155481339D-07
     .954866220274D+00  .143125000000D+03  .584726842163D+00 -.790961518151D-08
    -.231438211759D-09  .100000000000D+01  .228000000000D+04  .000000000000D+00
     .240000000000D+01  .000000000000D+00 -.130385160446D-07  .760000000000D+02
     .360000000000D+05  .400000000000D+01
32 23  9 17 12  0  0.0 -.559285748750D-03 -.602540239925D-11  .000000000000D+00
     .810000000000D+02 -.589062500000D+02  .489198948528D-08 -.650142123772D+00
    -.315718352795D-05  .697270070668D-02  .567547976971D-05  .515357140732D+04
     .432000000000D+05 -.204890966415D-07  .233424824228D+01  .139698386192D-06
     .960350542158D+00  .270437500000D+03 -.222188568125D+01 -.841856495274D-08
    -.569309428309D-09  .100000000000D+01  .228000000000D+04  .000000000000D+00
     .240000000000D+01  .000000000000D+00  .465661287308D-09  .810000000000D+02
     .360000000000D+05  .400000000000D+01
27 23  9 17 12  0  0.0 -.409078784287D-04 -.625277607469D-11  .000000000000D+00
     .410000000000D+02 -.684062500000D+02  .468483799945D-08 -.124733757765D+01
    -.344775617123D-05  .116244840901D-01  .471808016300D-05  .515366513634D+04
     .432000000000D+05  .242143869400D-06 -.802646478110D+00  .186264514923D-07
     .965848115154D+00  .285843750000D+03  .741862019794D+00 -.828784522202D-08
    -.224652214809D-09  .100000000000D+01  .228000000000D+04  .000000000000D+00
     .240000000000D+01  .000000000000D+00  .139698386192D-08  .410000000000D+02
     .360000000000D+05  .400000000000D+01
